
2017/03/16 17:20
LIPX 161720Z 15003KT 5000 BR NSC 17/04 Q1020
