
2017/03/17 14:20
LIPX 171420Z 16003KT 090V220 7000 NSC 20/04 Q1015
