
2016/11/16 17:20
LIPX 161720Z 07002KT 3000 BR NSC 06/03 Q1023
