
2016/11/17 17:50
LIPX 171750Z 14001KT 5000 BR BKN055 08/05 Q1021
