
2016/11/29 17:50
LIPX 291750Z 23003KT CAVOK 02/M05 Q1032
