
2016/11/15 20:20
LIPX 152020Z VRB02KT CAVOK 01/M01 Q1030
