
2016/11/22 09:20
LIPX 220920Z 06007KT 030V090 9999 BKN080 16/13 Q1019
