
2016/11/18 23:50
LIPX 182350Z 21003KT 180V250 3000 BR SCT010 BKN030 08/08 Q1015
