
2016/11/18 15:20
LIPX 181520Z VRB02KT 3000 BR SCT020 BKN040 09/06 Q1016
